#aV2011  8  8  0  0   .00000000      96 DD+AD WGS84 FIT  NGA
## 1648  86400.00000000   900.00000000 55781  .0000000000000
+   32     1  2  3  4  5  6  7  8  9 10 11 12 13 14 15 16 17
+         18 19 20 21 22 23 24 25 26 27 28 29 30 31 32  0  0
+          0  0  0  0  0  0  0  0  0  0  0  0  0  0  0  0  0
+          0  0  0  0  0  0  0  0  0  0  0  0  0  0  0  0  0
+          0  0  0  0  0  0  0  0  0  0  0  0  0  0  0  0  0
++         0  0  0  0  0  0  0  0  0  0  0  0  0  0  0  0  0
++         0  0  0  0  0  0  0  0  0  0  0  0  0  0  0  0  0
++         0  0  0  0  0  0  0  0  0  0  0  0  0  0  0  0  0
++         0  0  0  0  0  0  0  0  0  0  0  0  0  0  0  0  0
++         0  0  0  0  0  0  0  0  0  0  0  0  0  0  0  0  0
%c cc cc ccc ccc cccc cccc cccc cccc ccccc ccccc ccccc ccccc
%c cc cc ccc ccc cccc cccc cccc cccc ccccc ccccc ccccc ccccc
%f  0.0000000  0.000000000  0.00000000000  0.000000000000000
%f  0.0000000  0.000000000  0.00000000000  0.000000000000000
%i    0    0    0    0      0      0      0      0         0
%i    0    0    0    0      0      0      0      0         0
/*      NGA, ST. LOUIS,MO.                                  
/*   EPHEMERIS COMPUTED FROM  3 DAYS OF DATA                
/* CCCCCCCCCCCCCCCCCCCCCCCCCCCCCCCCCCCCCCCCCCCCCCCCCCCCCCCCC
/* CCCCCCCCCCCCCCCCCCCCCCCCCCCCCCCCCCCCCCCCCCCCCCCCCCCCCCCCC
*  2011  8  8 13 15   .00000000                                                 
P  1   5750.579517 -14403.834039 -21905.880393     -7.950274                    
V  1  23562.623496  13599.613647  -2767.214131       .012910                    
P  2   7098.594601  18933.638868  17527.974450    350.390080                    
V  2 -19925.524200  -9524.129147  17933.534488       .017432                    
P  3   1442.136514 -18744.188032 -19083.897985    752.268977                    
V  3  20041.004597 -12491.438134  14419.644745       .048175                    
P  4  -9365.292568  12554.986678  21246.375846    195.525595                    
V  4 -23587.795622 -14257.211758  -1612.214454       .110348                    
P  5   1988.318720  26208.916540  -3394.742337   -200.978845                    
V  5  -3187.462991   4264.703067  31264.899273      -.054290                    
P  6   7332.329472 -19079.198910 -16683.291419   -102.335509                    
V  6  19611.018252  -9446.532502  19496.398712       .105860                    
P  7 -22728.302129  -3176.661773 -13565.698096     21.172995                    
V  7 -13683.473001 -10423.622681  25131.220631       .016127                    
P  8 -17616.546678   3036.360209 -19806.245785      8.773993                    
V  8 -19892.921664 -15063.416810  14813.188730       .002181                    
P  9  21048.870165  15669.382440  -4583.706315     97.892760                    
V  9  -5425.767045   -822.945468 -31575.841943       .023874                    
P 10  -9595.987988  21221.406962  12191.521289     -9.324334                    
V 10  -2354.453705 -16098.686820  26086.493090      -.011710                    
P 11 -21582.126297 -13490.959364  -8505.343762   -175.136869                    
V 11  11185.173050  -1198.570356 -27225.625536      -.034200                    
P 12  11962.759025  14976.863626  18471.893754     14.491942                    
V 12  -2015.968973  23272.038149 -17403.682295       .024862                    
P 13 -23955.790179   2785.804203  11070.131082    257.348141                    
V 13  12286.668393  -7315.646260  27999.303340      -.017588                    
P 14  20672.667496 -15080.438520   6987.232846    165.961465                    
V 14   8731.402453  -1835.923762 -30664.395391       .020330                    
P 15  12332.777697  10351.204031 -21139.340266   -111.776776                    
V 15 -22965.605746  13970.718876  -6386.802230       .018450                    
P 16  -1573.736000 -25978.629326  -4407.282323   -190.477291                    
V 16   2813.035485  -5506.188965  31652.649283      -.023045                    
P 17 -19589.913608  16084.354615   7678.351055    179.912530                    
V 17  -9819.080431   1937.708126 -29878.065197      -.012501                    
P 18  15361.223189  -6043.985483 -20407.800918    151.262809                    
V 18    285.825475  26881.833761  -7995.272276       .018872                    
P 19  -8795.732110 -12691.395963 -21651.239527   -170.747875                    
V 19  24981.270040 -11330.361696  -3153.283319      -.040669                    
P 20 -14116.920183 -12389.703121  18659.869407     51.501147                    
V 20   1272.091997 -24101.058773 -14864.132458       .004004                    
P 21  22013.877259    552.918701 -14834.257386   -163.303302                    
V 21  15316.285081  12203.409282  21931.359221      -.025287                    
P 22  11186.088309 -19392.083205 -14026.829909    145.488546                    
V 22   2305.238629  18339.641746 -23331.102056      -.002845                    
P 23 -18991.613855  -4181.634837  18265.190492    285.670049                    
V 23  19663.163962 -12048.758370  17343.773900      -.029476                    
P 24 -22125.915156 -14993.212033      3.147539    413.571693                    
V 24   1707.097482  -2421.438551 -31270.284319       .031517                    
P 25  15076.968097   1734.893036  21770.502069     12.988996                    
V 25   -307.201914  27693.753994  -1964.959699       .018158                    
P 26   -340.366650  15951.327769 -21755.644906   -116.914557                    
V 26 -24136.283692  10323.169309   8555.480645      -.122993                    
P 27  18741.585313  16693.772281  -8567.234117    292.708780                    
V 27 -11145.008924  -3924.320544 -29439.022368       .038470                    
P 28 -12198.751629  16182.062340 -16510.515450     58.005825                    
V 28   -489.462752 -22105.272083 -20904.558252       .028935                    
P 29  23676.397010  -2758.613717  11741.599853    229.732872                    
V 29 -12176.451558   8757.814275  26814.943392       .030903                    
P 30  15087.601800   6395.790829  20545.844757     94.538011                    
V 30   1317.465144  26922.147885  -9174.769823      -.008221                    
P 31   5884.947777 -13792.874686  22107.610023    123.298267                    
V 31  23587.322994  14239.553681   2834.583764       .057557                    
P 32  -8630.576448 -20473.285540  15135.265231   -306.770031                    
V 32   3772.361616 -18294.604085 -22589.929810      -.070378                    
EOF
